{
"type": "FeatureCollection",
"name": "sen_admincapitals",
"crs": { "type": "name", "properties": { "name": "urn:ogc:def:crs:OGC:1.3:CRS84" } },
"features": [
{ "type": "Feature", "properties": { "adm_p_lvl": 2, "name": "Bakel", "name_1": null, "name_2": null, "name_3": null, "loc_pcode": null, "x_coord": -12.458206, "y_coord": 14.902204, "adm3_name": "<Null>", "adm3_name1": null, "adm3_name2": null, "adm3_name3": null, "adm3_pcode": "<Null>", "adm2_name": "Bakel", "adm2_name1": null, "adm2_name2": null, "adm2_name3": null, "adm2_pcode": "SN1201", "adm1_name": "Tambacounda", "adm1_name1": null, "adm1_name2": null, "adm1_name3": null, "adm1_pcode": "SN12", "adm0_name": "Senegal", "adm0_name1": null, "adm0_name2": null, "adm0_name3": null, "adm0_pcode": "SN", "valid_on": "2024-05-20", "valid_to": null, "version": "v02", "name_lng": null, "name_lng1": null, "name_lng2": null, "name_lng3": null }, "geometry": { "type": "Point", "coordinates": [ -12.458206, 14.902204 ] } },
{ "type": "Feature", "properties": { "adm_p_lvl": 2, "name": "Bambey", "name_1": null, "name_2": null, "name_3": null, "loc_pcode": null, "x_coord": -16.455425, "y_coord": 14.695551, "adm3_name": "<Null>", "adm3_name1": null, "adm3_name2": null, "adm3_name3": null, "adm3_pcode": "<Null>", "adm2_name": "Bambey", "adm2_name1": null, "adm2_name2": null, "adm2_name3": null, "adm2_pcode": "SN0201", "adm1_name": "Diourbel", "adm1_name1": null, "adm1_name2": null, "adm1_name3": null, "adm1_pcode": "SN02", "adm0_name": "Senegal", "adm0_name1": null, "adm0_name2": null, "adm0_name3": null, "adm0_pcode": "SN", "valid_on": "2024-05-20", "valid_to": null, "version": "v02", "name_lng": null, "name_lng1": null, "name_lng2": null, "name_lng3": null }, "geometry": { "type": "Point", "coordinates": [ -16.455425, 14.695551000000137 ] } },
{ "type": "Feature", "properties": { "adm_p_lvl": 2, "name": "Bignona", "name_1": null, "name_2": null, "name_3": null, "loc_pcode": null, "x_coord": -16.232591, "y_coord": 12.804688, "adm3_name": "<Null>", "adm3_name1": null, "adm3_name2": null, "adm3_name3": null, "adm3_pcode": "<Null>", "adm2_name": "Bignona", "adm2_name1": null, "adm2_name2": null, "adm2_name3": null, "adm2_pcode": "SN1401", "adm1_name": "Ziguinchor", "adm1_name1": null, "adm1_name2": null, "adm1_name3": null, "adm1_pcode": "SN14", "adm0_name": "Senegal", "adm0_name1": null, "adm0_name2": null, "adm0_name3": null, "adm0_pcode": "SN", "valid_on": "2024-05-20", "valid_to": null, "version": "v02", "name_lng": null, "name_lng1": null, "name_lng2": null, "name_lng3": null }, "geometry": { "type": "Point", "coordinates": [ -16.232591, 12.804688000000112 ] } },
{ "type": "Feature", "properties": { "adm_p_lvl": 2, "name": "Birkelane", "name_1": null, "name_2": null, "name_3": null, "loc_pcode": null, "x_coord": -15.745254, "y_coord": 14.130321, "adm3_name": "<Null>", "adm3_name1": null, "adm3_name2": null, "adm3_name3": null, "adm3_pcode": "<Null>", "adm2_name": "Birkelane", "adm2_name1": null, "adm2_name2": null, "adm2_name3": null, "adm2_pcode": "SN0401", "adm1_name": "Kaffrine", "adm1_name1": null, "adm1_name2": null, "adm1_name3": null, "adm1_pcode": "SN04", "adm0_name": "Senegal", "adm0_name1": null, "adm0_name2": null, "adm0_name3": null, "adm0_pcode": "SN", "valid_on": "2024-05-20", "valid_to": null, "version": "v02", "name_lng": null, "name_lng1": null, "name_lng2": null, "name_lng3": null }, "geometry": { "type": "Point", "coordinates": [ -15.745253999999875, 14.130321 ] } },
{ "type": "Feature", "properties": { "adm_p_lvl": 2, "name": "Boghe", "name_1": null, "name_2": null, "name_3": null, "loc_pcode": null, "x_coord": -14.270581, "y_coord": 16.580324, "adm3_name": "<Null>", "adm3_name1": null, "adm3_name2": null, "adm3_name3": null, "adm3_pcode": "<Null>", "adm2_name": "Podor", "adm2_name1": null, "adm2_name2": null, "adm2_name3": null, "adm2_pcode": "SN1002", "adm1_name": "Saint Louis", "adm1_name1": null, "adm1_name2": null, "adm1_name3": null, "adm1_pcode": "SN10", "adm0_name": "Senegal", "adm0_name1": null, "adm0_name2": null, "adm0_name3": null, "adm0_pcode": "SN", "valid_on": "2024-05-20", "valid_to": null, "version": "v02", "name_lng": null, "name_lng1": null, "name_lng2": null, "name_lng3": null }, "geometry": { "type": "Point", "coordinates": [ -14.270580999999822, 16.580324 ] } },
{ "type": "Feature", "properties": { "adm_p_lvl": 2, "name": "Bounkiling", "name_1": null, "name_2": null, "name_3": null, "loc_pcode": null, "x_coord": -15.698582, "y_coord": 13.038957, "adm3_name": "<Null>", "adm3_name1": null, "adm3_name2": null, "adm3_name3": null, "adm3_pcode": "<Null>", "adm2_name": "Bounkiling", "adm2_name1": null, "adm2_name2": null, "adm2_name3": null, "adm2_pcode": "SN1101", "adm1_name": "Sedhiou", "adm1_name1": null, "adm1_name2": null, "adm1_name3": null, "adm1_pcode": "SN11", "adm0_name": "Senegal", "adm0_name1": null, "adm0_name2": null, "adm0_name3": null, "adm0_pcode": "SN", "valid_on": "2024-05-20", "valid_to": null, "version": "v02", "name_lng": null, "name_lng1": null, "name_lng2": null, "name_lng3": null }, "geometry": { "type": "Point", "coordinates": [ -15.698582, 13.038957 ] } },
{ "type": "Feature", "properties": { "adm_p_lvl": 2, "name": "Dagana", "name_1": null, "name_2": null, "name_3": null, "loc_pcode": null, "x_coord": -15.500043, "y_coord": 16.517907, "adm3_name": "<Null>", "adm3_name1": null, "adm3_name2": null, "adm3_name3": null, "adm3_pcode": "<Null>", "adm2_name": "Dagana", "adm2_name1": null, "adm2_name2": null, "adm2_name3": null, "adm2_pcode": "SN1001", "adm1_name": "Saint Louis", "adm1_name1": null, "adm1_name2": null, "adm1_name3": null, "adm1_pcode": "SN10", "adm0_name": "Senegal", "adm0_name1": null, "adm0_name2": null, "adm0_name3": null, "adm0_pcode": "SN", "valid_on": "2024-05-20", "valid_to": null, "version": "v02", "name_lng": null, "name_lng1": null, "name_lng2": null, "name_lng3": null }, "geometry": { "type": "Point", "coordinates": [ -15.500043, 16.517907 ] } },
{ "type": "Feature", "properties": { "adm_p_lvl": 0, "name": "Dakar", "name_1": null, "name_2": null, "name_3": null, "loc_pcode": null, "x_coord": -17.439918, "y_coord": 14.675903, "adm3_name": "<Null>", "adm3_name1": null, "adm3_name2": null, "adm3_name3": null, "adm3_pcode": "<Null>", "adm2_name": "Dakar", "adm2_name1": null, "adm2_name2": null, "adm2_name3": null, "adm2_pcode": "SN0101", "adm1_name": "Dakar", "adm1_name1": null, "adm1_name2": null, "adm1_name3": null, "adm1_pcode": "SN01", "adm0_name": "Senegal", "adm0_name1": null, "adm0_name2": null, "adm0_name3": null, "adm0_pcode": "SN", "valid_on": "2024-05-20", "valid_to": null, "version": "v02", "name_lng": null, "name_lng1": null, "name_lng2": null, "name_lng3": null }, "geometry": { "type": "Point", "coordinates": [ -17.439918, 14.675903000000176 ] } },
{ "type": "Feature", "properties": { "adm_p_lvl": 3, "name": "Darou Minam Ii", "name_1": null, "name_2": null, "name_3": null, "loc_pcode": null, "x_coord": -15.253143, "y_coord": 14.549059, "adm3_name": "<Null>", "adm3_name1": null, "adm3_name2": null, "adm3_name3": null, "adm3_pcode": "<Null>", "adm2_name": "Malem Hodar", "adm2_name1": null, "adm2_name2": null, "adm2_name3": null, "adm2_pcode": "SN0405", "adm1_name": "Kaffrine", "adm1_name1": null, "adm1_name2": null, "adm1_name3": null, "adm1_pcode": "SN04", "adm0_name": "Senegal", "adm0_name1": null, "adm0_name2": null, "adm0_name3": null, "adm0_pcode": "SN", "valid_on": "2024-05-20", "valid_to": null, "version": "v02", "name_lng": null, "name_lng1": null, "name_lng2": null, "name_lng3": null }, "geometry": { "type": "Point", "coordinates": [ -15.253143, 14.549059000000113 ] } },
{ "type": "Feature", "properties": { "adm_p_lvl": 1, "name": "Diourbel", "name_1": null, "name_2": null, "name_3": null, "loc_pcode": null, "x_coord": -16.23205, "y_coord": 14.654268, "adm3_name": "<Null>", "adm3_name1": null, "adm3_name2": null, "adm3_name3": null, "adm3_pcode": "<Null>", "adm2_name": "Diourbel", "adm2_name1": null, "adm2_name2": null, "adm2_name3": null, "adm2_pcode": "SN0202", "adm1_name": "Diourbel", "adm1_name1": null, "adm1_name2": null, "adm1_name3": null, "adm1_pcode": "SN02", "adm0_name": "Senegal", "adm0_name1": null, "adm0_name2": null, "adm0_name3": null, "adm0_pcode": "SN", "valid_on": "2024-05-20", "valid_to": null, "version": "v02", "name_lng": null, "name_lng1": null, "name_lng2": null, "name_lng3": null }, "geometry": { "type": "Point", "coordinates": [ -16.23205, 14.654268000000116 ] } },
{ "type": "Feature", "properties": { "adm_p_lvl": 1, "name": "Fatick", "name_1": null, "name_2": null, "name_3": null, "loc_pcode": null, "x_coord": -16.420437, "y_coord": 14.33515, "adm3_name": "<Null>", "adm3_name1": null, "adm3_name2": null, "adm3_name3": null, "adm3_pcode": "<Null>", "adm2_name": "Fatick", "adm2_name1": null, "adm2_name2": null, "adm2_name3": null, "adm2_pcode": "SN0301", "adm1_name": "Fatick", "adm1_name1": null, "adm1_name2": null, "adm1_name3": null, "adm1_pcode": "SN03", "adm0_name": "Senegal", "adm0_name1": null, "adm0_name2": null, "adm0_name3": null, "adm0_pcode": "SN", "valid_on": "2024-05-20", "valid_to": null, "version": "v02", "name_lng": null, "name_lng1": null, "name_lng2": null, "name_lng3": null }, "geometry": { "type": "Point", "coordinates": [ -16.420437, 14.335150000000112 ] } },
{ "type": "Feature", "properties": { "adm_p_lvl": 2, "name": "Foundiougne", "name_1": null, "name_2": null, "name_3": null, "loc_pcode": null, "x_coord": -16.469747, "y_coord": 14.12411, "adm3_name": "<Null>", "adm3_name1": null, "adm3_name2": null, "adm3_name3": null, "adm3_pcode": "<Null>", "adm2_name": "Foundiougne", "adm2_name1": null, "adm2_name2": null, "adm2_name3": null, "adm2_pcode": "SN0302", "adm1_name": "Fatick", "adm1_name1": null, "adm1_name2": null, "adm1_name3": null, "adm1_pcode": "SN03", "adm0_name": "Senegal", "adm0_name1": null, "adm0_name2": null, "adm0_name3": null, "adm0_pcode": "SN", "valid_on": "2024-05-20", "valid_to": null, "version": "v02", "name_lng": null, "name_lng1": null, "name_lng2": null, "name_lng3": null }, "geometry": { "type": "Point", "coordinates": [ -16.469747, 14.12411 ] } },
{ "type": "Feature", "properties": { "adm_p_lvl": 3, "name": "Gniby", "name_1": null, "name_2": null, "name_3": null, "loc_pcode": null, "x_coord": -15.654661, "y_coord": 14.430701, "adm3_name": "<Null>", "adm3_name1": null, "adm3_name2": null, "adm3_name3": null, "adm3_pcode": "<Null>", "adm2_name": "Kaffrine", "adm2_name1": null, "adm2_name2": null, "adm2_name3": null, "adm2_pcode": "SN0402", "adm1_name": "Kaffrine", "adm1_name1": null, "adm1_name2": null, "adm1_name3": null, "adm1_pcode": "SN04", "adm0_name": "Senegal", "adm0_name1": null, "adm0_name2": null, "adm0_name3": null, "adm0_pcode": "SN", "valid_on": "2024-05-20", "valid_to": null, "version": "v02", "name_lng": null, "name_lng1": null, "name_lng2": null, "name_lng3": null }, "geometry": { "type": "Point", "coordinates": [ -15.654661, 14.430701 ] } },
{ "type": "Feature", "properties": { "adm_p_lvl": 2, "name": "Gossas", "name_1": null, "name_2": null, "name_3": null, "loc_pcode": null, "x_coord": -16.068037, "y_coord": 14.49674, "adm3_name": "<Null>", "adm3_name1": null, "adm3_name2": null, "adm3_name3": null, "adm3_pcode": "<Null>", "adm2_name": "Gossas", "adm2_name1": null, "adm2_name2": null, "adm2_name3": null, "adm2_pcode": "SN0303", "adm1_name": "Fatick", "adm1_name1": null, "adm1_name2": null, "adm1_name3": null, "adm1_pcode": "SN03", "adm0_name": "Senegal", "adm0_name1": null, "adm0_name2": null, "adm0_name3": null, "adm0_pcode": "SN", "valid_on": "2024-05-20", "valid_to": null, "version": "v02", "name_lng": null, "name_lng1": null, "name_lng2": null, "name_lng3": null }, "geometry": { "type": "Point", "coordinates": [ -16.06803699999989, 14.49674 ] } },
{ "type": "Feature", "properties": { "adm_p_lvl": 2, "name": "Goudiry", "name_1": null, "name_2": null, "name_3": null, "loc_pcode": null, "x_coord": -12.716785, "y_coord": 14.186281, "adm3_name": "<Null>", "adm3_name1": null, "adm3_name2": null, "adm3_name3": null, "adm3_pcode": "<Null>", "adm2_name": "Goudiry", "adm2_name1": null, "adm2_name2": null, "adm2_name3": null, "adm2_pcode": "SN1202", "adm1_name": "Tambacounda", "adm1_name1": null, "adm1_name2": null, "adm1_name3": null, "adm1_pcode": "SN12", "adm0_name": "Senegal", "adm0_name1": null, "adm0_name2": null, "adm0_name3": null, "adm0_pcode": "SN", "valid_on": "2024-05-20", "valid_to": null, "version": "v02", "name_lng": null, "name_lng1": null, "name_lng2": null, "name_lng3": null }, "geometry": { "type": "Point", "coordinates": [ -12.716785, 14.186281 ] } },
{ "type": "Feature", "properties": { "adm_p_lvl": 2, "name": "Goudomp", "name_1": null, "name_2": null, "name_3": null, "loc_pcode": null, "x_coord": -15.875015, "y_coord": 12.572483, "adm3_name": "<Null>", "adm3_name1": null, "adm3_name2": null, "adm3_name3": null, "adm3_pcode": "<Null>", "adm2_name": "Goudomp", "adm2_name1": null, "adm2_name2": null, "adm2_name3": null, "adm2_pcode": "SN1102", "adm1_name": "Sedhiou", "adm1_name1": null, "adm1_name2": null, "adm1_name3": null, "adm1_pcode": "SN11", "adm0_name": "Senegal", "adm0_name1": null, "adm0_name2": null, "adm0_name3": null, "adm0_pcode": "SN", "valid_on": "2024-05-20", "valid_to": null, "version": "v02", "name_lng": null, "name_lng1": null, "name_lng2": null, "name_lng3": null }, "geometry": { "type": "Point", "coordinates": [ -15.875015, 12.572483 ] } },
{ "type": "Feature", "properties": { "adm_p_lvl": 2, "name": "Guediawaye", "name_1": null, "name_2": null, "name_3": null, "loc_pcode": null, "x_coord": -17.392467, "y_coord": 14.772957, "adm3_name": "<Null>", "adm3_name1": null, "adm3_name2": null, "adm3_name3": null, "adm3_pcode": "<Null>", "adm2_name": "Guediawaye", "adm2_name1": null, "adm2_name2": null, "adm2_name3": null, "adm2_pcode": "SN0102", "adm1_name": "Dakar", "adm1_name1": null, "adm1_name2": null, "adm1_name3": null, "adm1_pcode": "SN01", "adm0_name": "Senegal", "adm0_name1": null, "adm0_name2": null, "adm0_name3": null, "adm0_pcode": "SN", "valid_on": "2024-05-20", "valid_to": null, "version": "v02", "name_lng": null, "name_lng1": null, "name_lng2": null, "name_lng3": null }, "geometry": { "type": "Point", "coordinates": [ -17.392466999999897, 14.772957 ] } },
{ "type": "Feature", "properties": { "adm_p_lvl": 2, "name": "Guingueneo", "name_1": null, "name_2": null, "name_3": null, "loc_pcode": null, "x_coord": -15.946416, "y_coord": 14.269556, "adm3_name": "<Null>", "adm3_name1": null, "adm3_name2": null, "adm3_name3": null, "adm3_pcode": "<Null>", "adm2_name": "Guinguineo", "adm2_name1": null, "adm2_name2": null, "adm2_name3": null, "adm2_pcode": "SN0501", "adm1_name": "Kaolack", "adm1_name1": null, "adm1_name2": null, "adm1_name3": null, "adm1_pcode": "SN05", "adm0_name": "Senegal", "adm0_name1": null, "adm0_name2": null, "adm0_name3": null, "adm0_pcode": "SN", "valid_on": "2024-05-20", "valid_to": null, "version": "v02", "name_lng": null, "name_lng1": null, "name_lng2": null, "name_lng3": null }, "geometry": { "type": "Point", "coordinates": [ -15.946415999999886, 14.269556 ] } },
{ "type": "Feature", "properties": { "adm_p_lvl": 3, "name": "Ida Mouride", "name_1": null, "name_2": null, "name_3": null, "loc_pcode": null, "x_coord": -14.662802, "y_coord": 13.990124, "adm3_name": "<Null>", "adm3_name1": null, "adm3_name2": null, "adm3_name3": null, "adm3_pcode": "<Null>", "adm2_name": "Koungheul", "adm2_name1": null, "adm2_name2": null, "adm2_name3": null, "adm2_pcode": "SN0403", "adm1_name": "Kaffrine", "adm1_name1": null, "adm1_name2": null, "adm1_name3": null, "adm1_pcode": "SN04", "adm0_name": "Senegal", "adm0_name1": null, "adm0_name2": null, "adm0_name3": null, "adm0_pcode": "SN", "valid_on": "2024-05-20", "valid_to": null, "version": "v02", "name_lng": null, "name_lng1": null, "name_lng2": null, "name_lng3": null }, "geometry": { "type": "Point", "coordinates": [ -14.662801999999886, 13.990124 ] } },
{ "type": "Feature", "properties": { "adm_p_lvl": 1, "name": "Kaffrine", "name_1": null, "name_2": null, "name_3": null, "loc_pcode": null, "x_coord": -15.543472, "y_coord": 14.101269, "adm3_name": "<Null>", "adm3_name1": null, "adm3_name2": null, "adm3_name3": null, "adm3_pcode": "<Null>", "adm2_name": "Kaffrine", "adm2_name1": null, "adm2_name2": null, "adm2_name3": null, "adm2_pcode": "SN0402", "adm1_name": "Kaffrine", "adm1_name1": null, "adm1_name2": null, "adm1_name3": null, "adm1_pcode": "SN04", "adm0_name": "Senegal", "adm0_name1": null, "adm0_name2": null, "adm0_name3": null, "adm0_pcode": "SN", "valid_on": "2024-05-20", "valid_to": null, "version": "v02", "name_lng": null, "name_lng1": null, "name_lng2": null, "name_lng3": null }, "geometry": { "type": "Point", "coordinates": [ -15.543471999999895, 14.101269000000173 ] } },
{ "type": "Feature", "properties": { "adm_p_lvl": 2, "name": "Kanel", "name_1": null, "name_2": null, "name_3": null, "loc_pcode": null, "x_coord": -13.175942, "y_coord": 15.490765, "adm3_name": "<Null>", "adm3_name1": null, "adm3_name2": null, "adm3_name3": null, "adm3_pcode": "<Null>", "adm2_name": "Kanel", "adm2_name1": null, "adm2_name2": null, "adm2_name3": null, "adm2_pcode": "SN0901", "adm1_name": "Matam", "adm1_name1": null, "adm1_name2": null, "adm1_name3": null, "adm1_pcode": "SN09", "adm0_name": "Senegal", "adm0_name1": null, "adm0_name2": null, "adm0_name3": null, "adm0_pcode": "SN", "valid_on": "2024-05-20", "valid_to": null, "version": "v02", "name_lng": null, "name_lng1": null, "name_lng2": null, "name_lng3": null }, "geometry": { "type": "Point", "coordinates": [ -13.175942, 15.490765000000181 ] } },
{ "type": "Feature", "properties": { "adm_p_lvl": 1, "name": "Kaolack", "name_1": null, "name_2": null, "name_3": null, "loc_pcode": null, "x_coord": -16.076695, "y_coord": 14.142798, "adm3_name": "<Null>", "adm3_name1": null, "adm3_name2": null, "adm3_name3": null, "adm3_pcode": "<Null>", "adm2_name": "Kaolack", "adm2_name1": null, "adm2_name2": null, "adm2_name3": null, "adm2_pcode": "SN0502", "adm1_name": "Kaolack", "adm1_name1": null, "adm1_name2": null, "adm1_name3": null, "adm1_pcode": "SN05", "adm0_name": "Senegal", "adm0_name1": null, "adm0_name2": null, "adm0_name3": null, "adm0_pcode": "SN", "valid_on": "2024-05-20", "valid_to": null, "version": "v02", "name_lng": null, "name_lng1": null, "name_lng2": null, "name_lng3": null }, "geometry": { "type": "Point", "coordinates": [ -16.076695, 14.142798000000141 ] } },
{ "type": "Feature", "properties": { "adm_p_lvl": 2, "name": "Kebemer", "name_1": null, "name_2": null, "name_3": null, "loc_pcode": null, "x_coord": -16.448498, "y_coord": 15.372302, "adm3_name": "<Null>", "adm3_name1": null, "adm3_name2": null, "adm3_name3": null, "adm3_pcode": "<Null>", "adm2_name": "Kebemer", "adm2_name1": null, "adm2_name2": null, "adm2_name3": null, "adm2_pcode": "SN0801", "adm1_name": "Louga", "adm1_name1": null, "adm1_name2": null, "adm1_name3": null, "adm1_pcode": "SN08", "adm0_name": "Senegal", "adm0_name1": null, "adm0_name2": null, "adm0_name3": null, "adm0_pcode": "SN", "valid_on": "2024-05-20", "valid_to": null, "version": "v02", "name_lng": null, "name_lng1": null, "name_lng2": null, "name_lng3": null }, "geometry": { "type": "Point", "coordinates": [ -16.448498, 15.372302000000104 ] } },
{ "type": "Feature", "properties": { "adm_p_lvl": 1, "name": "Kedougou", "name_1": null, "name_2": null, "name_3": null, "loc_pcode": null, "x_coord": -12.191413, "y_coord": 12.560838, "adm3_name": "<Null>", "adm3_name1": null, "adm3_name2": null, "adm3_name3": null, "adm3_pcode": "<Null>", "adm2_name": "Kedougou", "adm2_name1": null, "adm2_name2": null, "adm2_name3": null, "adm2_pcode": "SN0601", "adm1_name": "Kedougou", "adm1_name1": null, "adm1_name2": null, "adm1_name3": null, "adm1_pcode": "SN06", "adm0_name": "Senegal", "adm0_name1": null, "adm0_name2": null, "adm0_name3": null, "adm0_pcode": "SN", "valid_on": "2024-05-20", "valid_to": null, "version": "v02", "name_lng": null, "name_lng1": null, "name_lng2": null, "name_lng3": null }, "geometry": { "type": "Point", "coordinates": [ -12.191413, 12.560838000000103 ] } },
{ "type": "Feature", "properties": { "adm_p_lvl": 3, "name": "Keur Mboucki", "name_1": null, "name_2": null, "name_3": null, "loc_pcode": null, "x_coord": -15.829315, "y_coord": 14.136673, "adm3_name": "<Null>", "adm3_name1": null, "adm3_name2": null, "adm3_name3": null, "adm3_pcode": "<Null>", "adm2_name": "Birkelane", "adm2_name1": null, "adm2_name2": null, "adm2_name3": null, "adm2_pcode": "SN0401", "adm1_name": "Kaffrine", "adm1_name1": null, "adm1_name2": null, "adm1_name3": null, "adm1_pcode": "SN04", "adm0_name": "Senegal", "adm0_name1": null, "adm0_name2": null, "adm0_name3": null, "adm0_pcode": "SN", "valid_on": "2024-05-20", "valid_to": null, "version": "v02", "name_lng": null, "name_lng1": null, "name_lng2": null, "name_lng3": null }, "geometry": { "type": "Point", "coordinates": [ -15.829315, 14.136673000000144 ] } },
{ "type": "Feature", "properties": { "adm_p_lvl": 1, "name": "Kolda", "name_1": null, "name_2": null, "name_3": null, "loc_pcode": null, "x_coord": -14.939588, "y_coord": 12.892043, "adm3_name": "<Null>", "adm3_name1": null, "adm3_name2": null, "adm3_name3": null, "adm3_pcode": "<Null>", "adm2_name": "Kolda", "adm2_name1": null, "adm2_name2": null, "adm2_name3": null, "adm2_pcode": "SN0701", "adm1_name": "Kolda", "adm1_name1": null, "adm1_name2": null, "adm1_name3": null, "adm1_pcode": "SN07", "adm0_name": "Senegal", "adm0_name1": null, "adm0_name2": null, "adm0_name3": null, "adm0_pcode": "SN", "valid_on": "2024-05-20", "valid_to": null, "version": "v02", "name_lng": null, "name_lng1": null, "name_lng2": null, "name_lng3": null }, "geometry": { "type": "Point", "coordinates": [ -14.939588, 12.892043 ] } },
{ "type": "Feature", "properties": { "adm_p_lvl": 2, "name": "Koumpentoum", "name_1": null, "name_2": null, "name_3": null, "loc_pcode": null, "x_coord": -14.563226, "y_coord": 13.980363, "adm3_name": "<Null>", "adm3_name1": null, "adm3_name2": null, "adm3_name3": null, "adm3_pcode": "<Null>", "adm2_name": "Koumpentoum", "adm2_name1": null, "adm2_name2": null, "adm2_name3": null, "adm2_pcode": "SN1203", "adm1_name": "Tambacounda", "adm1_name1": null, "adm1_name2": null, "adm1_name3": null, "adm1_pcode": "SN12", "adm0_name": "Senegal", "adm0_name1": null, "adm0_name2": null, "adm0_name3": null, "adm0_pcode": "SN", "valid_on": "2024-05-20", "valid_to": null, "version": "v02", "name_lng": null, "name_lng1": null, "name_lng2": null, "name_lng3": null }, "geometry": { "type": "Point", "coordinates": [ -14.563226, 13.980363000000125 ] } },
{ "type": "Feature", "properties": { "adm_p_lvl": 2, "name": "Koungheul", "name_1": null, "name_2": null, "name_3": null, "loc_pcode": null, "x_coord": -14.801411, "y_coord": 13.976588, "adm3_name": "<Null>", "adm3_name1": null, "adm3_name2": null, "adm3_name3": null, "adm3_pcode": "<Null>", "adm2_name": "Koungheul", "adm2_name1": null, "adm2_name2": null, "adm2_name3": null, "adm2_pcode": "SN0403", "adm1_name": "Kaffrine", "adm1_name1": null, "adm1_name2": null, "adm1_name3": null, "adm1_pcode": "SN04", "adm0_name": "Senegal", "adm0_name1": null, "adm0_name2": null, "adm0_name3": null, "adm0_pcode": "SN", "valid_on": "2024-05-20", "valid_to": null, "version": "v02", "name_lng": null, "name_lng1": null, "name_lng2": null, "name_lng3": null }, "geometry": { "type": "Point", "coordinates": [ -14.801411, 13.976588 ] } },
{ "type": "Feature", "properties": { "adm_p_lvl": 2, "name": "Linguere", "name_1": null, "name_2": null, "name_3": null, "loc_pcode": null, "x_coord": -15.120179, "y_coord": 15.396581, "adm3_name": "<Null>", "adm3_name1": null, "adm3_name2": null, "adm3_name3": null, "adm3_pcode": "<Null>", "adm2_name": "Linguere", "adm2_name1": null, "adm2_name2": null, "adm2_name3": null, "adm2_pcode": "SN0802", "adm1_name": "Louga", "adm1_name1": null, "adm1_name2": null, "adm1_name3": null, "adm1_pcode": "SN08", "adm0_name": "Senegal", "adm0_name1": null, "adm0_name2": null, "adm0_name3": null, "adm0_pcode": "SN", "valid_on": "2024-05-20", "valid_to": null, "version": "v02", "name_lng": null, "name_lng1": null, "name_lng2": null, "name_lng3": null }, "geometry": { "type": "Point", "coordinates": [ -15.120178999999837, 15.396581 ] } },
{ "type": "Feature", "properties": { "adm_p_lvl": 1, "name": "Louga", "name_1": null, "name_2": null, "name_3": null, "loc_pcode": null, "x_coord": -16.226543, "y_coord": 15.620871, "adm3_name": "<Null>", "adm3_name1": null, "adm3_name2": null, "adm3_name3": null, "adm3_pcode": "<Null>", "adm2_name": "Louga", "adm2_name1": null, "adm2_name2": null, "adm2_name3": null, "adm2_pcode": "SN0803", "adm1_name": "Louga", "adm1_name1": null, "adm1_name2": null, "adm1_name3": null, "adm1_pcode": "SN08", "adm0_name": "Senegal", "adm0_name1": null, "adm0_name2": null, "adm0_name3": null, "adm0_pcode": "SN", "valid_on": "2024-05-20", "valid_to": null, "version": "v02", "name_lng": null, "name_lng1": null, "name_lng2": null, "name_lng3": null }, "geometry": { "type": "Point", "coordinates": [ -16.226542999999879, 15.620871000000136 ] } },
{ "type": "Feature", "properties": { "adm_p_lvl": 3, "name": "Lour Escale", "name_1": null, "name_2": null, "name_3": null, "loc_pcode": null, "x_coord": -14.740984, "y_coord": 14.225335, "adm3_name": "<Null>", "adm3_name1": null, "adm3_name2": null, "adm3_name3": null, "adm3_pcode": "<Null>", "adm2_name": "Koungheul", "adm2_name1": null, "adm2_name2": null, "adm2_name3": null, "adm2_pcode": "SN0403", "adm1_name": "Kaffrine", "adm1_name1": null, "adm1_name2": null, "adm1_name3": null, "adm1_pcode": "SN04", "adm0_name": "Senegal", "adm0_name1": null, "adm0_name2": null, "adm0_name3": null, "adm0_pcode": "SN", "valid_on": "2024-05-20", "valid_to": null, "version": "v02", "name_lng": null, "name_lng1": null, "name_lng2": null, "name_lng3": null }, "geometry": { "type": "Point", "coordinates": [ -14.740984, 14.225335 ] } },
{ "type": "Feature", "properties": { "adm_p_lvl": 3, "name": "Mabo", "name_1": null, "name_2": null, "name_3": null, "loc_pcode": null, "x_coord": -15.670216, "y_coord": 13.91551, "adm3_name": "<Null>", "adm3_name1": null, "adm3_name2": null, "adm3_name3": null, "adm3_pcode": "<Null>", "adm2_name": "Birkelane", "adm2_name1": null, "adm2_name2": null, "adm2_name3": null, "adm2_pcode": "SN0401", "adm1_name": "Kaffrine", "adm1_name1": null, "adm1_name2": null, "adm1_name3": null, "adm1_pcode": "SN04", "adm0_name": "Senegal", "adm0_name1": null, "adm0_name2": null, "adm0_name3": null, "adm0_pcode": "SN", "valid_on": "2024-05-20", "valid_to": null, "version": "v02", "name_lng": null, "name_lng1": null, "name_lng2": null, "name_lng3": null }, "geometry": { "type": "Point", "coordinates": [ -15.670216, 13.915510000000154 ] } },
{ "type": "Feature", "properties": { "adm_p_lvl": 2, "name": "Maleme Hoddar", "name_1": null, "name_2": null, "name_3": null, "loc_pcode": null, "x_coord": -15.292551, "y_coord": 14.087075, "adm3_name": "<Null>", "adm3_name1": null, "adm3_name2": null, "adm3_name3": null, "adm3_pcode": "<Null>", "adm2_name": "Malem Hodar", "adm2_name1": null, "adm2_name2": null, "adm2_name3": null, "adm2_pcode": "SN0405", "adm1_name": "Kaffrine", "adm1_name1": null, "adm1_name2": null, "adm1_name3": null, "adm1_pcode": "SN04", "adm0_name": "Senegal", "adm0_name1": null, "adm0_name2": null, "adm0_name3": null, "adm0_pcode": "SN", "valid_on": "2024-05-20", "valid_to": null, "version": "v02", "name_lng": null, "name_lng1": null, "name_lng2": null, "name_lng3": null }, "geometry": { "type": "Point", "coordinates": [ -15.292551, 14.087075000000141 ] } },
{ "type": "Feature", "properties": { "adm_p_lvl": 1, "name": "Matam", "name_1": null, "name_2": null, "name_3": null, "loc_pcode": null, "x_coord": -13.263472, "y_coord": 15.653723, "adm3_name": "<Null>", "adm3_name1": null, "adm3_name2": null, "adm3_name3": null, "adm3_pcode": "<Null>", "adm2_name": "Matam", "adm2_name1": null, "adm2_name2": null, "adm2_name3": null, "adm2_pcode": "SN0902", "adm1_name": "Matam", "adm1_name1": null, "adm1_name2": null, "adm1_name3": null, "adm1_pcode": "SN09", "adm0_name": "Senegal", "adm0_name1": null, "adm0_name2": null, "adm0_name3": null, "adm0_pcode": "SN", "valid_on": "2024-05-20", "valid_to": null, "version": "v02", "name_lng": null, "name_lng1": null, "name_lng2": null, "name_lng3": null }, "geometry": { "type": "Point", "coordinates": [ -13.263472, 15.653723000000127 ] } },
{ "type": "Feature", "properties": { "adm_p_lvl": 2, "name": "Mbacke", "name_1": null, "name_2": null, "name_3": null, "loc_pcode": null, "x_coord": -15.910368, "y_coord": 14.79848, "adm3_name": "<Null>", "adm3_name1": null, "adm3_name2": null, "adm3_name3": null, "adm3_pcode": "<Null>", "adm2_name": "Mbacke", "adm2_name1": null, "adm2_name2": null, "adm2_name3": null, "adm2_pcode": "SN0203", "adm1_name": "Diourbel", "adm1_name1": null, "adm1_name2": null, "adm1_name3": null, "adm1_pcode": "SN02", "adm0_name": "Senegal", "adm0_name1": null, "adm0_name2": null, "adm0_name3": null, "adm0_pcode": "SN", "valid_on": "2024-05-20", "valid_to": null, "version": "v02", "name_lng": null, "name_lng1": null, "name_lng2": null, "name_lng3": null }, "geometry": { "type": "Point", "coordinates": [ -15.910368, 14.798480000000154 ] } },
{ "type": "Feature", "properties": { "adm_p_lvl": 2, "name": "Mbour", "name_1": null, "name_2": null, "name_3": null, "loc_pcode": null, "x_coord": -16.961813, "y_coord": 14.42188, "adm3_name": "<Null>", "adm3_name1": null, "adm3_name2": null, "adm3_name3": null, "adm3_pcode": "<Null>", "adm2_name": "Mbour", "adm2_name1": null, "adm2_name2": null, "adm2_name3": null, "adm2_pcode": "SN1301", "adm1_name": "Thies", "adm1_name1": null, "adm1_name2": null, "adm1_name3": null, "adm1_pcode": "SN13", "adm0_name": "Senegal", "adm0_name1": null, "adm0_name2": null, "adm0_name3": null, "adm0_pcode": "SN", "valid_on": "2024-05-20", "valid_to": null, "version": "v02", "name_lng": null, "name_lng1": null, "name_lng2": null, "name_lng3": null }, "geometry": { "type": "Point", "coordinates": [ -16.961812999999893, 14.421880000000101 ] } },
{ "type": "Feature", "properties": { "adm_p_lvl": 2, "name": "Medina Yoro Foulah", "name_1": null, "name_2": null, "name_3": null, "loc_pcode": null, "x_coord": -14.714983, "y_coord": 13.293276, "adm3_name": "<Null>", "adm3_name1": null, "adm3_name2": null, "adm3_name3": null, "adm3_pcode": "<Null>", "adm2_name": "Medina Yoro Foulah", "adm2_name1": null, "adm2_name2": null, "adm2_name3": null, "adm2_pcode": "SN0702", "adm1_name": "Kolda", "adm1_name1": null, "adm1_name2": null, "adm1_name3": null, "adm1_pcode": "SN07", "adm0_name": "Senegal", "adm0_name1": null, "adm0_name2": null, "adm0_name3": null, "adm0_pcode": "SN", "valid_on": "2024-05-20", "valid_to": null, "version": "v02", "name_lng": null, "name_lng1": null, "name_lng2": null, "name_lng3": null }, "geometry": { "type": "Point", "coordinates": [ -14.714983, 13.293276000000105 ] } },
{ "type": "Feature", "properties": { "adm_p_lvl": 3, "name": "Missirah Wadene", "name_1": null, "name_2": null, "name_3": null, "loc_pcode": null, "x_coord": -15.113727, "y_coord": 13.990368, "adm3_name": "<Null>", "adm3_name1": null, "adm3_name2": null, "adm3_name3": null, "adm3_pcode": "<Null>", "adm2_name": "Koungheul", "adm2_name1": null, "adm2_name2": null, "adm2_name3": null, "adm2_pcode": "SN0403", "adm1_name": "Kaffrine", "adm1_name1": null, "adm1_name2": null, "adm1_name3": null, "adm1_pcode": "SN04", "adm0_name": "Senegal", "adm0_name1": null, "adm0_name2": null, "adm0_name3": null, "adm0_pcode": "SN", "valid_on": "2024-05-20", "valid_to": null, "version": "v02", "name_lng": null, "name_lng1": null, "name_lng2": null, "name_lng3": null }, "geometry": { "type": "Point", "coordinates": [ -15.113726999999869, 13.99036800000016 ] } },
{ "type": "Feature", "properties": { "adm_p_lvl": 2, "name": "Nioro Du Rip", "name_1": null, "name_2": null, "name_3": null, "loc_pcode": null, "x_coord": -15.773148, "y_coord": 13.743301, "adm3_name": "<Null>", "adm3_name1": null, "adm3_name2": null, "adm3_name3": null, "adm3_pcode": "<Null>", "adm2_name": "Nioro du Rip", "adm2_name1": null, "adm2_name2": null, "adm2_name3": null, "adm2_pcode": "SN0503", "adm1_name": "Kaolack", "adm1_name1": null, "adm1_name2": null, "adm1_name3": null, "adm1_pcode": "SN05", "adm0_name": "Senegal", "adm0_name1": null, "adm0_name2": null, "adm0_name3": null, "adm0_pcode": "SN", "valid_on": "2024-05-20", "valid_to": null, "version": "v02", "name_lng": null, "name_lng1": null, "name_lng2": null, "name_lng3": null }, "geometry": { "type": "Point", "coordinates": [ -15.773147999999821, 13.743301 ] } },
{ "type": "Feature", "properties": { "adm_p_lvl": 2, "name": "Oussouye", "name_1": null, "name_2": null, "name_3": null, "loc_pcode": null, "x_coord": -16.544875, "y_coord": 12.486037, "adm3_name": "<Null>", "adm3_name1": null, "adm3_name2": null, "adm3_name3": null, "adm3_pcode": "<Null>", "adm2_name": "Oussouye", "adm2_name1": null, "adm2_name2": null, "adm2_name3": null, "adm2_pcode": "SN1402", "adm1_name": "Ziguinchor", "adm1_name1": null, "adm1_name2": null, "adm1_name3": null, "adm1_pcode": "SN14", "adm0_name": "Senegal", "adm0_name1": null, "adm0_name2": null, "adm0_name3": null, "adm0_pcode": "SN", "valid_on": "2024-05-20", "valid_to": null, "version": "v02", "name_lng": null, "name_lng1": null, "name_lng2": null, "name_lng3": null }, "geometry": { "type": "Point", "coordinates": [ -16.544875, 12.486037 ] } },
{ "type": "Feature", "properties": { "adm_p_lvl": 2, "name": "Pikine", "name_1": null, "name_2": null, "name_3": null, "loc_pcode": null, "x_coord": -17.393483, "y_coord": 14.758103, "adm3_name": "<Null>", "adm3_name1": null, "adm3_name2": null, "adm3_name3": null, "adm3_pcode": "<Null>", "adm2_name": "Pikine", "adm2_name1": null, "adm2_name2": null, "adm2_name3": null, "adm2_pcode": "SN0103", "adm1_name": "Dakar", "adm1_name1": null, "adm1_name2": null, "adm1_name3": null, "adm1_pcode": "SN01", "adm0_name": "Senegal", "adm0_name1": null, "adm0_name2": null, "adm0_name3": null, "adm0_pcode": "SN", "valid_on": "2024-05-20", "valid_to": null, "version": "v02", "name_lng": null, "name_lng1": null, "name_lng2": null, "name_lng3": null }, "geometry": { "type": "Point", "coordinates": [ -17.393483, 14.758103000000119 ] } },
{ "type": "Feature", "properties": { "adm_p_lvl": 2, "name": "Podor", "name_1": null, "name_2": null, "name_3": null, "loc_pcode": null, "x_coord": -14.960445, "y_coord": 16.652962, "adm3_name": "<Null>", "adm3_name1": null, "adm3_name2": null, "adm3_name3": null, "adm3_pcode": "<Null>", "adm2_name": "Podor", "adm2_name1": null, "adm2_name2": null, "adm2_name3": null, "adm2_pcode": "SN1002", "adm1_name": "Saint Louis", "adm1_name1": null, "adm1_name2": null, "adm1_name3": null, "adm1_pcode": "SN10", "adm0_name": "Senegal", "adm0_name1": null, "adm0_name2": null, "adm0_name3": null, "adm0_pcode": "SN", "valid_on": "2024-05-20", "valid_to": null, "version": "v02", "name_lng": null, "name_lng1": null, "name_lng2": null, "name_lng3": null }, "geometry": { "type": "Point", "coordinates": [ -14.960445, 16.652962 ] } },
{ "type": "Feature", "properties": { "adm_p_lvl": 2, "name": "Ranerou", "name_1": null, "name_2": null, "name_3": null, "loc_pcode": null, "x_coord": -13.961916, "y_coord": 15.298009, "adm3_name": "<Null>", "adm3_name1": null, "adm3_name2": null, "adm3_name3": null, "adm3_pcode": "<Null>", "adm2_name": "Ranerou", "adm2_name1": null, "adm2_name2": null, "adm2_name3": null, "adm2_pcode": "SN0903", "adm1_name": "Matam", "adm1_name1": null, "adm1_name2": null, "adm1_name3": null, "adm1_pcode": "SN09", "adm0_name": "Senegal", "adm0_name1": null, "adm0_name2": null, "adm0_name3": null, "adm0_pcode": "SN", "valid_on": "2024-05-20", "valid_to": null, "version": "v02", "name_lng": null, "name_lng1": null, "name_lng2": null, "name_lng3": null }, "geometry": { "type": "Point", "coordinates": [ -13.961916, 15.29800900000015 ] } },
{ "type": "Feature", "properties": { "adm_p_lvl": 2, "name": "Rosso", "name_1": null, "name_2": null, "name_3": null, "loc_pcode": null, "x_coord": -15.914167, "y_coord": 16.510278, "adm3_name": "<Null>", "adm3_name1": null, "adm3_name2": null, "adm3_name3": null, "adm3_pcode": "<Null>", "adm2_name": "Dagana", "adm2_name1": null, "adm2_name2": null, "adm2_name3": null, "adm2_pcode": "SN1001", "adm1_name": "Saint Louis", "adm1_name1": null, "adm1_name2": null, "adm1_name3": null, "adm1_pcode": "SN10", "adm0_name": "Senegal", "adm0_name1": null, "adm0_name2": null, "adm0_name3": null, "adm0_pcode": "SN", "valid_on": "2024-05-20", "valid_to": null, "version": "v02", "name_lng": null, "name_lng1": null, "name_lng2": null, "name_lng3": null }, "geometry": { "type": "Point", "coordinates": [ -15.914167, 16.510278000000142 ] } },
{ "type": "Feature", "properties": { "adm_p_lvl": 2, "name": "Rufisque", "name_1": null, "name_2": null, "name_3": null, "loc_pcode": null, "x_coord": -17.251157, "y_coord": 14.724423, "adm3_name": "<Null>", "adm3_name1": null, "adm3_name2": null, "adm3_name3": null, "adm3_pcode": "<Null>", "adm2_name": "Rufisque", "adm2_name1": null, "adm2_name2": null, "adm2_name3": null, "adm2_pcode": "SN0104", "adm1_name": "Dakar", "adm1_name1": null, "adm1_name2": null, "adm1_name3": null, "adm1_pcode": "SN01", "adm0_name": "Senegal", "adm0_name1": null, "adm0_name2": null, "adm0_name3": null, "adm0_pcode": "SN", "valid_on": "2024-05-20", "valid_to": null, "version": "v02", "name_lng": null, "name_lng1": null, "name_lng2": null, "name_lng3": null }, "geometry": { "type": "Point", "coordinates": [ -17.251157, 14.724423000000172 ] } },
{ "type": "Feature", "properties": { "adm_p_lvl": 3, "name": "Sagna", "name_1": null, "name_2": null, "name_3": null, "loc_pcode": null, "x_coord": -15.385499, "y_coord": 14.092152, "adm3_name": "<Null>", "adm3_name1": null, "adm3_name2": null, "adm3_name3": null, "adm3_pcode": "<Null>", "adm2_name": "Malem Hodar", "adm2_name1": null, "adm2_name2": null, "adm2_name3": null, "adm2_pcode": "SN0405", "adm1_name": "Kaffrine", "adm1_name1": null, "adm1_name2": null, "adm1_name3": null, "adm1_pcode": "SN04", "adm0_name": "Senegal", "adm0_name1": null, "adm0_name2": null, "adm0_name3": null, "adm0_pcode": "SN", "valid_on": "2024-05-20", "valid_to": null, "version": "v02", "name_lng": null, "name_lng1": null, "name_lng2": null, "name_lng3": null }, "geometry": { "type": "Point", "coordinates": [ -15.385499, 14.092152 ] } },
{ "type": "Feature", "properties": { "adm_p_lvl": 1, "name": "Saint-Louis", "name_1": null, "name_2": null, "name_3": null, "loc_pcode": null, "x_coord": -16.498108, "y_coord": 16.025684, "adm3_name": "<Null>", "adm3_name1": null, "adm3_name2": null, "adm3_name3": null, "adm3_pcode": "<Null>", "adm2_name": "Saint Louis", "adm2_name1": null, "adm2_name2": null, "adm2_name3": null, "adm2_pcode": "SN1003", "adm1_name": "Saint Louis", "adm1_name1": null, "adm1_name2": null, "adm1_name3": null, "adm1_pcode": "SN10", "adm0_name": "Senegal", "adm0_name1": null, "adm0_name2": null, "adm0_name3": null, "adm0_pcode": "SN", "valid_on": "2024-05-20", "valid_to": null, "version": "v02", "name_lng": null, "name_lng1": null, "name_lng2": null, "name_lng3": null }, "geometry": { "type": "Point", "coordinates": [ -16.498108, 16.025684 ] } },
{ "type": "Feature", "properties": { "adm_p_lvl": 2, "name": "Salemata", "name_1": null, "name_2": null, "name_3": null, "loc_pcode": null, "x_coord": -12.820782, "y_coord": 12.631617, "adm3_name": "<Null>", "adm3_name1": null, "adm3_name2": null, "adm3_name3": null, "adm3_pcode": "<Null>", "adm2_name": "Salemata", "adm2_name1": null, "adm2_name2": null, "adm2_name3": null, "adm2_pcode": "SN0602", "adm1_name": "Kedougou", "adm1_name1": null, "adm1_name2": null, "adm1_name3": null, "adm1_pcode": "SN06", "adm0_name": "Senegal", "adm0_name1": null, "adm0_name2": null, "adm0_name3": null, "adm0_pcode": "SN", "valid_on": "2024-05-20", "valid_to": null, "version": "v02", "name_lng": null, "name_lng1": null, "name_lng2": null, "name_lng3": null }, "geometry": { "type": "Point", "coordinates": [ -12.820782, 12.631617 ] } },
{ "type": "Feature", "properties": { "adm_p_lvl": 2, "name": "Saraya", "name_1": null, "name_2": null, "name_3": null, "loc_pcode": null, "x_coord": -11.755998, "y_coord": 12.8341, "adm3_name": "<Null>", "adm3_name1": null, "adm3_name2": null, "adm3_name3": null, "adm3_pcode": "<Null>", "adm2_name": "Saraya", "adm2_name1": null, "adm2_name2": null, "adm2_name3": null, "adm2_pcode": "SN0603", "adm1_name": "Kedougou", "adm1_name1": null, "adm1_name2": null, "adm1_name3": null, "adm1_pcode": "SN06", "adm0_name": "Senegal", "adm0_name1": null, "adm0_name2": null, "adm0_name3": null, "adm0_pcode": "SN", "valid_on": "2024-05-20", "valid_to": null, "version": "v02", "name_lng": null, "name_lng1": null, "name_lng2": null, "name_lng3": null }, "geometry": { "type": "Point", "coordinates": [ -11.755997999999863, 12.8341 ] } },
{ "type": "Feature", "properties": { "adm_p_lvl": 1, "name": "Sedhiou", "name_1": null, "name_2": null, "name_3": null, "loc_pcode": null, "x_coord": -15.557257, "y_coord": 12.705562, "adm3_name": "<Null>", "adm3_name1": null, "adm3_name2": null, "adm3_name3": null, "adm3_pcode": "<Null>", "adm2_name": "Sedhiou", "adm2_name1": null, "adm2_name2": null, "adm2_name3": null, "adm2_pcode": "SN1103", "adm1_name": "Sedhiou", "adm1_name1": null, "adm1_name2": null, "adm1_name3": null, "adm1_pcode": "SN11", "adm0_name": "Senegal", "adm0_name1": null, "adm0_name2": null, "adm0_name3": null, "adm0_pcode": "SN", "valid_on": "2024-05-20", "valid_to": null, "version": "v02", "name_lng": null, "name_lng1": null, "name_lng2": null, "name_lng3": null }, "geometry": { "type": "Point", "coordinates": [ -15.557257, 12.705562 ] } },
{ "type": "Feature", "properties": { "adm_p_lvl": 1, "name": "Tambacounda", "name_1": null, "name_2": null, "name_3": null, "loc_pcode": null, "x_coord": -13.674252, "y_coord": 13.773694, "adm3_name": "<Null>", "adm3_name1": null, "adm3_name2": null, "adm3_name3": null, "adm3_pcode": "<Null>", "adm2_name": "Tambacounda", "adm2_name1": null, "adm2_name2": null, "adm2_name3": null, "adm2_pcode": "SN1204", "adm1_name": "Tambacounda", "adm1_name1": null, "adm1_name2": null, "adm1_name3": null, "adm1_pcode": "SN12", "adm0_name": "Senegal", "adm0_name1": null, "adm0_name2": null, "adm0_name3": null, "adm0_pcode": "SN", "valid_on": "2024-05-20", "valid_to": null, "version": "v02", "name_lng": null, "name_lng1": null, "name_lng2": null, "name_lng3": null }, "geometry": { "type": "Point", "coordinates": [ -13.674252, 13.773694000000148 ] } },
{ "type": "Feature", "properties": { "adm_p_lvl": 1, "name": "Thies Ouest", "name_1": null, "name_2": null, "name_3": null, "loc_pcode": null, "x_coord": -16.93034, "y_coord": 14.793751, "adm3_name": "<Null>", "adm3_name1": null, "adm3_name2": null, "adm3_name3": null, "adm3_pcode": "<Null>", "adm2_name": "Thies", "adm2_name1": null, "adm2_name2": null, "adm2_name3": null, "adm2_pcode": "SN1302", "adm1_name": "Thies", "adm1_name1": null, "adm1_name2": null, "adm1_name3": null, "adm1_pcode": "SN13", "adm0_name": "Senegal", "adm0_name1": null, "adm0_name2": null, "adm0_name3": null, "adm0_pcode": "SN", "valid_on": "2024-05-20", "valid_to": null, "version": "v02", "name_lng": null, "name_lng1": null, "name_lng2": null, "name_lng3": null }, "geometry": { "type": "Point", "coordinates": [ -16.93034, 14.793751 ] } },
{ "type": "Feature", "properties": { "adm_p_lvl": 2, "name": "Tivaouane", "name_1": null, "name_2": null, "name_3": null, "loc_pcode": null, "x_coord": -16.816213, "y_coord": 14.953609, "adm3_name": "<Null>", "adm3_name1": null, "adm3_name2": null, "adm3_name3": null, "adm3_pcode": "<Null>", "adm2_name": "Tivaouane", "adm2_name1": null, "adm2_name2": null, "adm2_name3": null, "adm2_pcode": "SN1303", "adm1_name": "Thies", "adm1_name1": null, "adm1_name2": null, "adm1_name3": null, "adm1_pcode": "SN13", "adm0_name": "Senegal", "adm0_name1": null, "adm0_name2": null, "adm0_name3": null, "adm0_pcode": "SN", "valid_on": "2024-05-20", "valid_to": null, "version": "v02", "name_lng": null, "name_lng1": null, "name_lng2": null, "name_lng3": null }, "geometry": { "type": "Point", "coordinates": [ -16.816212999999891, 14.953609000000142 ] } },
{ "type": "Feature", "properties": { "adm_p_lvl": 2, "name": "Velingara", "name_1": null, "name_2": null, "name_3": null, "loc_pcode": null, "x_coord": -14.110701, "y_coord": 13.15001, "adm3_name": "<Null>", "adm3_name1": null, "adm3_name2": null, "adm3_name3": null, "adm3_pcode": "<Null>", "adm2_name": "Velingara", "adm2_name1": null, "adm2_name2": null, "adm2_name3": null, "adm2_pcode": "SN0703", "adm1_name": "Kolda", "adm1_name1": null, "adm1_name2": null, "adm1_name3": null, "adm1_pcode": "SN07", "adm0_name": "Senegal", "adm0_name1": null, "adm0_name2": null, "adm0_name3": null, "adm0_pcode": "SN", "valid_on": "2024-05-20", "valid_to": null, "version": "v02", "name_lng": null, "name_lng1": null, "name_lng2": null, "name_lng3": null }, "geometry": { "type": "Point", "coordinates": [ -14.110700999999892, 13.150010000000179 ] } },
{ "type": "Feature", "properties": { "adm_p_lvl": 1, "name": "Ziguinchor", "name_1": null, "name_2": null, "name_3": null, "loc_pcode": null, "x_coord": -16.274927, "y_coord": 12.565174, "adm3_name": "<Null>", "adm3_name1": null, "adm3_name2": null, "adm3_name3": null, "adm3_pcode": "<Null>", "adm2_name": "Ziguinchor", "adm2_name1": null, "adm2_name2": null, "adm2_name3": null, "adm2_pcode": "SN1403", "adm1_name": "Ziguinchor", "adm1_name1": null, "adm1_name2": null, "adm1_name3": null, "adm1_pcode": "SN14", "adm0_name": "Senegal", "adm0_name1": null, "adm0_name2": null, "adm0_name3": null, "adm0_pcode": "SN", "valid_on": "2024-05-20", "valid_to": null, "version": "v02", "name_lng": null, "name_lng1": null, "name_lng2": null, "name_lng3": null }, "geometry": { "type": "Point", "coordinates": [ -16.274927, 12.565174 ] } }
]
}
